P/2011 A2 (Scotti),e,4.4750,54.6764,94.5226,3.105597,0.1800887,0.49944952,310.8971,03/04.0/2021,2000,g 16.5,4.0
# From MPC 84021
P/2011 C2 (Gibbs),e,10.8849,12.1246,160.9596,7.414063,0.0488225,0.26892366,163.5584,03/04.0/2021,2000,g  9.0,4.0
# From MPC 79866
P/2011 FR143 (Lemmon),e,15.9844,190.9510,350.1120,6.857758,0.0548821,0.45083889,200.6091,03/04.0/2021,2000,g 14.0,2.0
# From MPC 82317
P/2011 JB15 (Spacewatch-Boattini),e,19.1469,153.5886,111.0246,7.355683,0.0494049,0.31782139,164.3834,03/04.0/2021,2000,g  9.0,4.0
# From MPEC 2020-AA5
C/2011 KP36 (Spacewatch),e,18.9852,173.2875,180.6817,38.94647,0.0040551,0.87469442,7.0603,03/04.0/2021,2000,g  4.5,4.0
# From MPC 87913
P/2011 N1 (ASH),e,35.7189,77.5986,330.3354,6.249529,0.0630860,0.54385539,202.5802,03/04.0/2021,2000,g 11.5,4.0
# From MPC 75714
P/2011 NO1 (Elenin),e,15.2487,295.7946,263.8121,5.524091,0.0759124,0.77476528,280.4403,03/04.0/2021,2000,g 15.0,4.0
# From MPC 82318
P/2011 P1 (McNaught),e,5.6590,4.2382,348.9133,7.467250,0.0483018,0.32722370,187.3713,03/04.0/2021,2000,g  9.0,4.0
# From MPC 77806
P/2011 Q3 (McNaught),e,6.0571,32.0259,310.9830,4.970357,0.0889452,0.53263984,312.5517,03/04.0/2021,2000,g 13.5,4.0
# From MPC 98558
P/2011 S1 (Gibbs),e,2.6843,218.8906,192.4667,8.586504,0.0391723,0.20037359,93.8905,03/04.0/2021,2000,g  8.0,4.0
# From MPC 79022
P/2011 UA134 (Spacewatch-PANSTARRS),e,10.4417,40.4119,32.4415,5.605278,0.0742691,0.62930098,252.5111,03/04.0/2021,2000,g 17.5,4.0
# From MPC 77406
P/2011 V1 (Boattini),e,7.3763,46.8389,269.2691,3.855167,0.1302085,0.55061667,115.0773,03/04.0/2021,2000,g 15.5,4.0
# From MPC 82718
P/2011 W1 (PANSTARRS),e,3.7186,161.7901,282.7406,4.660597,0.0979584,0.28717691,326.6237,03/04.0/2021,2000,g 11.5,4.0
# From MPC 79342
P/2011 Y2 (Boattini),e,6.3714,309.3682,131.9197,6.239753,0.0632343,0.70933698,207.7733,03/04.0/2021,2000,g 15.0,4.0
# From MPC 94669
P/2012 B1 (PANSTARRS),e,7.6141,36.2064,162.5670,6.528602,0.0590845,0.40954491,164.5486,03/04.0/2021,2000,g  9.0,4.0
# From MPC 78590
P/2012 C3 (PANSTARRS),e,9.0920,135.3677,344.9542,9.748681,0.0323806,0.63011148,359.9758,10/06.0/2011,2000,g 13.0,4.0
# From MPC 84931
P/2012 F2 (PANSTARRS),e,14.7208,227.0470,33.2759,6.329540,0.0618936,0.54253397,178.3720,03/04.0/2021,2000,g 12.0,4.0
# From MPC 79344
P/2012 G1 (PANSTARRS),e,11.6925,282.5440,286.1149,4.172871,0.1156250,0.38072240,359.9500,06/01.0/2012,2000,g 15.0,4.0
# From MPC 80898
P/2012 K3 (Gibbs),e,13.1946,125.8083,172.1693,3.625277,0.1427882,0.42341729,80.6016,03/04.0/2021,2000,g 15.0,4.0
# From MPC 88326
P/2012 NJ (La Sagra),e,84.6635,315.5448,338.3394,8.460285,0.0400522,0.84727586,127.5921,03/04.0/2021,2000,g 14.5,4.0
# From MPC 81470
P/2012 O1 (McNaught),e,7.4321,91.9800,238.2294,3.540437,0.1479513,0.59457584,108.3731,03/04.0/2021,2000,g 17.5,4.0
# From MPC 80899
P/2012 O2 (McNaught),e,24.4862,120.6790,183.4204,3.623557,0.1428899,0.53276282,95.4306,03/04.0/2021,2000,g 17.0,4.0
# From MPC 82720
P/2012 O3 (McNaught),e,16.6155,336.4123,344.7215,4.574048,0.1007518,0.64698638,314.4849,03/04.0/2021,2000,g 16.5,4.0
# From MPC 82720
P/2012 S2 (La Sagra),e,8.6865,51.1912,312.4890,4.412781,0.1063250,0.69126367,334.2940,03/04.0/2021,2000,g 17.0,4.0
# From MPC 82320
P/2012 T2 (PANSTARRS),e,12.5575,73.7256,310.4352,5.736246,0.0717402,0.16105543,206.2295,03/04.0/2021,2000,g 10.0,4.0
# From MPC 80900
P/2012 T3 (PANSTARRS),e,9.5680,114.4064,195.4596,6.151938,0.0645931,0.61725344,208.4754,03/04.0/2021,2000,g 15.0,4.0
# From MPC 87914
P/2012 TK8 (Tenagra),e,6.3402,288.9652,127.9903,4.127410,0.1175405,0.27422242,332.2637,03/04.0/2021,2000,g 13.0,4.0
# From MPC 82720
P/2012 U2 (PANSTARRS),e,10.7521,185.2864,228.2886,7.140777,0.0516518,0.49815194,156.8903,03/04.0/2021,2000,g 12.5,4.0
# From MPC 84024
P/2012 US27 (Siding Spring),e,39.3373,49.1753,0.8091,5.166446,0.0839298,0.64753943,248.5299,03/04.0/2021,2000,g 13.5,4.0
# From MPC 82721
P/2012 WA34 (Lemmon-PANSTARRS),e,6.1020,94.3007,353.8352,4.747936,0.0952680,0.34489314,279.1161,03/04.0/2021,2000,g 13.5,4.0
# From MPC 82721
P/2013 AL76 (Catalina),e,144.8332,145.9730,27.1054,6.497311,0.0595119,0.68617597,178.9480,03/04.0/2021,2000,g 16.0,4.0
# From MPC 91612
P/2013 G1 (Kowalski),e,5.4661,221.3939,51.4160,6.888784,0.0545118,0.51296840,143.7789,03/04.0/2021,2000,g 11.0,4.0
# From MPC 84025
P/2013 G4 (PANSTARRS),e,5.9163,339.6399,214.6967,4.439733,0.1053583,0.40955027,310.2183,03/04.0/2021,2000,g 15.0,4.0
# From MPC 91613
P/2013 J2 (McNaught),e,15.5331,289.4223,37.7410,6.223082,0.0634886,0.65759283,174.2755,03/04.0/2021,2000,g 13.0,4.0
# From MPC 86229
P/2013 N3 (PANSTARRS),e,2.1735,17.4815,323.8737,7.391053,0.0490506,0.59318954,126.2281,03/04.0/2021,2000,g 13.0,4.0
# From MPC 85834
P/2013 N5 (PANSTARRS),e,23.4295,187.1632,176.8903,6.798875,0.0555966,0.73198072,155.7428,03/04.0/2021,2000,g 17.0,4.0
# From MPC 85834
P/2013 P1 (PANSTARRS),e,18.7221,160.6079,138.1267,8.570123,0.0392847,0.60600590,114.8666,03/04.0/2021,2000,g 12.0,4.0
# From MPC 94671
P/2013 R3 (Catalina-PANSTARRS),e,0.8654,342.0007,11.1630,3.033828,0.1865167,0.27515801,152.5945,03/04.0/2021,2000,g 14.0,4.0
# From unp
P/2013 R3-A (Catalina-PANSTARRS),e,0.8647,341.9676,11.2020,3.033686,0.1865297,0.27512747,152.6280,03/04.0/2021,2000,g  9.0,4.0
# From MPEC 2015-M77
P/2013 R3-B (Catalina-PANSTARRS),e,0.8660,342.0234,11.1369,3.033905,0.1865096,0.27517304,152.5766,03/04.0/2021,2000,g  9.0,4.0
# From MPC 85835
P/2013 T1 (PANSTARRS),e,24.2812,10.0855,346.0882,5.860852,0.0694645,0.62376501,192.4856,03/04.0/2021,2000,g 16.5,4.0
# From MPC 86643
P/2013 T2 (Schwartz),e,9.4562,0.8119,345.4964,3.489776,0.1511846,0.50121170,69.4502,03/04.0/2021,2000,g 16.0,4.0
# From MPC 91613
P/2013 W1 (PANSTARRS),e,4.6954,117.8478,1.2874,3.490520,0.1511364,0.59280143,26.4037,03/04.0/2021,2000,g 17.5,4.0
# From MPC111767
C/2013 X1 (PANSTARRS),h,04/19.4267/2016,163.1947,131.5698,165.1880,1.000492,1.324576,2000,10.5,2.0
# From MPC101095
P/2013 YG46 (Spacewatch),e,7.8558,48.8588,242.5162,3.276172,0.1662088,0.45490987,248.1308,03/04.0/2021,2000,g 10.0,4.0
# From MPC 89728
P/2014 A2 (Hill),e,24.5387,106.6295,356.2210,5.926651,0.0683109,0.64536240,184.2822,03/04.0/2021,2000,g 15.0,4.0
# From MPC 92981
P/2014 A3 (PANSTARRS),e,13.6849,230.1257,213.1395,4.626574,0.0990409,0.24721354,283.2568,03/04.0/2021,2000,g 12.0,4.0
# From MPC119994
C/2014 B1 (Schwartz),e,28.4079,161.4159,345.7586,7255,0.0000016,0.99868321,0.0000,09/08.4839/2017,2000,g  4.0,4.0
# From MPC102095
P/2014 C1 (TOTAS),e,2.6871,167.7624,24.0118,3.039551,0.1859901,0.44795201,128.4303,03/04.0/2021,2000,g 15.5,4.0
# From MPC 94280
C/2014 F3 (Sheppard-Trujillo),e,6.5956,326.7450,3.3989,15.64704,0.0159241,0.63636302,358.8121,03/04.0/2021,2000,g  6.0,4.0
# From MPC 98560
P/2014 L2 (NEOWISE),e,5.1984,149.3483,182.6519,6.303668,0.0622750,0.64818442,150.6848,03/04.0/2021,2000,g 12.0,4.0
# From MPC 90769
P/2014 L3 (Hill),e,6.2775,115.4707,178.6478,8.168650,0.0422162,0.77382211,102.8966,03/04.0/2021,2000,g 16.0,4.0
# From MPC 91614
P/2014 M4 (PANSTARRS),e,3.3359,263.2624,147.9530,5.874126,0.0692292,0.59412391,156.5232,03/04.0/2021,2000,g 15.0,4.0
# From MPC103844
P/2014 MG4 (Spacewatch-PANSTARRS),e,9.3715,311.7339,299.1012,5.011968,0.0878398,0.25965419,247.3101,03/04.0/2021,2000,g  9.5,4.0
# From MPC 98560
P/2014 O3 (PANSTARRS),e,7.8063,87.6435,204.6118,7.564425,0.0473740,0.38610878,118.8643,03/04.0/2021,2000,g 10.5,4.0
# From MPEC 2020-AA5
C/2014 OE4 (PANSTARRS),h,12/12.9277/2016,81.3098,240.4171,65.8863,1.003114,6.249265,2000,11.0,2.0
# From MPC115880
C/2014 R3 (PANSTARRS),e,90.9240,334.0954,113.4427,14263,0.0000006,0.99949004,0.0000,08/08.9428/2016,2000,g  6.5,4.0
# From MPC 91615
P/2014 R5 (Lemmon-PANSTARRS),e,1.0883,126.5585,213.7286,4.056371,0.1206417,0.41362689,295.6953,03/04.0/2021,2000,g 15.0,4.0
# From MPC 91616
P/2014 U4 (PANSTARRS),e,6.4292,11.8905,347.7378,3.506236,0.1501213,0.46492436,2.7766,03/04.0/2021,2000,g 18.0,4.0
# From MPC 95211
P/2014 V1 (PANSTARRS),e,22.5193,166.2009,177.5741,5.481105,0.0768072,0.53425477,171.3874,03/04.0/2021,2000,g 14.0,4.0
# From MPC 93586
P/2014 W1 (PANSTARRS),e,8.8381,246.2455,152.2322,4.461946,0.1045725,0.38870890,253.2136,03/04.0/2021,2000,g 15.5,4.0
# From MPC110493
C/2014 W2 (PANSTARRS),e,82.0730,69.9899,84.9372,558.0403,0.0000748,0.99520769,0.0000,03/07.8298/2016,2000,g  7.5,4.0
# From MPC105542
P/2014 W4 (PANSTARRS),e,15.2733,33.3573,67.8261,6.598306,0.0581508,0.35208664,109.9700,03/04.0/2021,2000,g 11.0,4.0
# From MPC115880
C/2014 W10 (PANSTARRS),e,82.8859,43.0977,43.6486,808.3829,0.0000429,0.99063100,0.0000,03/04.2405/2016,2000,g  8.0,4.0
# From MPC 93587
P/2014 W12 (Gibbs),e,8.5139,299.2905,36.8848,3.519693,0.1492612,0.52422462,343.9875,03/04.0/2021,2000,g 15.0,4.0
# From MPC 94281
P/2014 X1 (Elenin),e,26.0063,61.5089,33.9666,6.209486,0.0636972,0.70856040,143.5917,03/04.0/2021,2000,g 15.0,4.0
# From MPC 92275
P/2015 A3 (PANSTARRS),e,172.5301,277.1823,249.2540,7.808204,0.0451728,0.85125979,99.6599,03/04.0/2021,2000,g 20.0,4.0
# From MPC 99270
P/2015 B1 (PANSTARRS),e,18.0322,353.0069,188.8573,9.499059,0.0336654,0.36818907,67.2287,03/04.0/2021,2000,g  8.5,4.0
# From MPC108592
C/2015 B2 (PANSTARRS),e,104.9889,341.8467,284.7207,16172,0.0000005,0.99979154,0.0000,05/05.3344/2016,2000,g  9.5,4.0
# From MPC109141
P/2015 B4 (Lemmon-PANSTARRS),e,1.7600,266.0251,227.4635,8.531358,0.0395528,0.56019379,87.8048,03/04.0/2021,2000,g 11.0,4.0
# From MPC101096
P/2015 C1 (TOTAS-Gibbs),e,13.8928,348.8182,178.3111,6.584322,0.0583361,0.56026023,124.7112,03/04.0/2021,2000,g 12.5,4.0
# From MPC119995
C/2015 D3 (PANSTARRS),h,05/02.3838/2016,128.5491,157.0623,2.9499,1.003565,8.143381,2000,5.5,4.0
# From MPC109141
P/2015 D5 (Kowalski),e,20.5016,74.0599,39.8772,8.970056,0.0366869,0.48882200,92.8029,03/04.0/2021,2000,g  9.0,4.0
# From MPC 96866
P/2015 D6 (Lemmon-PANSTARRS),e,20.2017,46.0127,125.1778,7.144778,0.0516085,0.36185128,106.8756,03/04.0/2021,2000,g 10.5,4.0
# From MPC112390
